[{"OBJECT_NAME":"SITRO-AIS 16","OBJECT_ID":"2024-199C","EPOCH":"2026-03-09T22:02:52.039104","MEAN_MOTION":14.97049887,"ECCENTRICITY":0.00080733,"INCLINATION":97.3322,"RA_OF_ASC_NODE":274.4213,"ARG_OF_PERICENTER":52.0818,"MEAN_ANOMALY":308.1134,"EPHEMERIS_TYPE":0,"CLASSIFICATION_TYPE":"U","NORAD_CAT_ID":61737,"ELEMENT_SET_NO":999,"REV_AT_EPOCH":11696,"BSTAR":0.00041232113,"MEAN_MOTION_DOT":4.701e-5,"MEAN_MOTION_DDOT":0},{"OBJECT_NAME":"STARLINK-34397","OBJECT_ID":"2025-126N","EPOCH":"2026-03-09T22:16:12.669888","MEAN_MOTION":14.98338673,"ECCENTRICITY":0.00026294,"INCLINATION":70.0029,"RA_OF_ASC_NODE":34.0108,"ARG_OF_PERICENTER":253.7036,"MEAN_ANOMALY":106.3834,"EPHEMERIS_TYPE":0,"CLASSIFICATION_TYPE":"U","NORAD_CAT_ID":64356,"ELEMENT_SET_NO":999,"REV_AT_EPOCH":4071,"BSTAR":0.00047942477,"MEAN_MOTION_DOT":5.633e-5,"MEAN_MOTION_DDOT":0}]
